[{"OBJECT_NAME":"SPAWAR-CAL-O","OBJECT_ID":"2018-099J","EPOCH":"2026-03-09T17:45:15.080832","MEAN_MOTION":15.31356755,"ECCENTRICITY":0.00072392,"INCLINATION":97.4452,"RA_OF_ASC_NODE":132.0993,"ARG_OF_PERICENTER":285.067,"MEAN_ANOMALY":74.977,"EPHEMERIS_TYPE":0,"CLASSIFICATION_TYPE":"U","NORAD_CAT_ID":43766,"ELEMENT_SET_NO":999,"REV_AT_EPOCH":39828,"BSTAR":0.00069663212,"MEAN_MOTION_DOT":0.00021069,"MEAN_MOTION_DDOT":0},{"OBJECT_NAME":"STARLINK-32816","OBJECT_ID":"2025-034X","EPOCH":"2026-03-09T21:08:36.542400","MEAN_MOTION":15.3020265,"ECCENTRICITY":8.564e-5,"INCLINATION":53.1603,"RA_OF_ASC_NODE":270.1885,"ARG_OF_PERICENTER":94.5988,"MEAN_ANOMALY":265.511,"EPHEMERIS_TYPE":0,"CLASSIFICATION_TYPE":"U","NORAD_CAT_ID":63050,"ELEMENT_SET_NO":999,"REV_AT_EPOCH":5893,"BSTAR":0.0010233222,"MEAN_MOTION_DOT":0.00030074,"MEAN_MOTION_DDOT":0}]
