SPAWAR-CAL-O            
1 43766U 18099J   26068.73975788  .00021069  00000+0  69663-3 0  9999
2 43766  97.4452 132.0993 0007239 285.0670  74.9770 15.31356755398280
STARLINK-32816          
1 63050U 25034X   26068.88097850  .00030074  00000+0  10233-2 0  9999
2 63050  53.1603 270.1885 0000856  94.5988 265.5110 15.30202650 58936
